start=new Date('2022-01-15T00:00:00.000Z').valueOf();
sats=[{"OBJECT_NAME":"STARLINK-1153","APOAPSIS":"548.778","OBJECT_TYPE":"PAYLOAD","TIME_SYSTEM":"UTC","GP_ID":"193877857","TLE_LINE1":"1 45080U 20006AN  22014.88342793 -.00000863  00000-0 -39019-4 0  9993","PERIOD":"95.593","ELEMENT_SET_NO":"999","ECCENTRICITY":"0.00022300","FILE":"3273247","REV_AT_EPOCH":"10842","MEAN_ANOMALY":"290.1555","RA_OF_ASC_NODE":"226.8471","NORAD_CAT_ID":"45080","EPHEMERIS_TYPE":"0","OBJECT_ID":"2020-006AN","CENTER_NAME":"EARTH","ARG_OF_PERICENTER":"69.9674","MEAN_MOTION_DOT":"-0.00000863","DECAY_DATE":null,"MEAN_ELEMENT_THEORY":"SGP4","LAUNCH_DATE":"2020-01-29","CLASSIFICATION_TYPE":"U","EPOCH":"2022-01-14T21:12:08.173152","MEAN_MOTION_DDOT":"0.0000000000000","SEMIMAJOR_AXIS":"6925.368","MEAN_MOTION":"15.06393565","REF_FRAME":"TEME","BSTAR":"-0.00003901900000","COUNTRY_CODE":"US","TLE_LINE2":"2 45080  53.0537 226.8471 0002230  69.9674 290.1555 15.06393565108425","PERIAPSIS":"545.689","SITE":"AFETR","RCS_SIZE":"LARGE","INCLINATION":"53.0537"},{"SEMIMAJOR_AXIS":"6925.357","MEAN_MOTION_DDOT":"0.0000000000000","CLASSIFICATION_TYPE":"U","EPOCH":"2022-01-14T20:40:17.409504","CENTER_NAME":"EARTH","MEAN_MOTION_DOT":"0.00000840","ARG_OF_PERICENTER":"67.3369","OBJECT_ID":"2020-006AP","LAUNCH_DATE":"2020-01-29","DECAY_DATE":null,"MEAN_ELEMENT_THEORY":"SGP4","PERIAPSIS":"545.574","TLE_LINE2":"2 45081  53.0545 226.9617 0002380  67.3369 292.7871 15.06397104108429","RCS_SIZE":"LARGE","INCLINATION":"53.0545","SITE":"AFETR","REF_FRAME":"TEME","MEAN_MOTION":"15.06397104","COUNTRY_CODE":"US","BSTAR":"0.00007528100000","GP_ID":"193876605","TLE_LINE1":"1 45081U 20006AP  22014.86131261  .00000840  00000-0  75281-4 0  9992","TIME_SYSTEM":"UTC","PERIOD":"95.592","OBJECT_NAME":"STARLINK-1151","OBJECT_TYPE":"PAYLOAD","APOAPSIS":"548.871","NORAD_CAT_ID":"45081","RA_OF_ASC_NODE":"226.9617","FILE":"3273247","REV_AT_EPOCH":"10842","MEAN_ANOMALY":"292.7871","EPHEMERIS_TYPE":"0","ELEMENT_SET_NO":"999","ECCENTRICITY":"0.00023800"},{"SITE":"AFETR","RCS_SIZE":"LARGE","INCLINATION":"53.0529","TLE_LINE2":"2 45082  53.0529 226.9882 0002387  75.4146 284.7107 15.06384091108419","PERIAPSIS":"545.609","COUNTRY_CODE":"US","BSTAR":"0.00043118000000","MEAN_MOTION":"15.06384091","REF_FRAME":"TEME","EPOCH":"2022-01-14T20:24:21.149856","CLASSIFICATION_TYPE":"U","MEAN_MOTION_DDOT":"0.0000000000000","SEMIMAJOR_AXIS":"6925.397","MEAN_ELEMENT_THEORY":"SGP4","DECAY_DATE":null,"LAUNCH_DATE":"2020-01-29","OBJECT_ID":"2020-006AQ","ARG_OF_PERICENTER":"75.4146","MEAN_MOTION_DOT":"0.00006144","CENTER_NAME":"EARTH","EPHEMERIS_TYPE":"0","FILE":"3273247","REV_AT_EPOCH":"10841","MEAN_ANOMALY":"284.7107","RA_OF_ASC_NODE":"226.9882","NORAD_CAT_ID":"45082","ECCENTRICITY":"0.00023870","ELEMENT_SET_NO":"999","PERIOD":"95.593","TIME_SYSTEM":"UTC","GP_ID":"193876855","TLE_LINE1":"1 45082U 20006AQ  22014.85024479  .00006144  00000-0  43118-3 0  9990","APOAPSIS":"548.915","OBJECT_TYPE":"PAYLOAD","OBJECT_NAME":"STARLINK-1160"},{"ELEMENT_SET_NO":"999","ECCENTRICITY":"0.00021050","RA_OF_ASC_NODE":"246.8649","NORAD_CAT_ID":"45083","FILE":"3273247","MEAN_ANOMALY":"285.0601","REV_AT_EPOCH":"10814","EPHEMERIS_TYPE":"0","OBJECT_NAME":"STARLINK-1190","APOAPSIS":"548.675","OBJECT_TYPE":"PAYLOAD","GP_ID":"193877107","TLE_LINE1":"1 45083U 20006AR  22014.88158996  .00001123  00000-0  94272-4 0  9996","TIME_SYSTEM":"UTC","PERIOD":"95.592","REF_FRAME":"TEME","MEAN_MOTION":"15.06398788","COUNTRY_CODE":"US","BSTAR":"0.00009427200000","PERIAPSIS":"545.759","TLE_LINE2":"2 45083  53.0544 246.8649 0002105  75.0621 285.0601 15.06398788108142","INCLINATION":"53.0544","RCS_SIZE":"LARGE","SITE":"AFETR","CENTER_NAME":"EARTH","ARG_OF_PERICENTER":"75.0621","MEAN_MOTION_DOT":"0.00001123","OBJECT_ID":"2020-006AR","LAUNCH_DATE":"2020-01-29","DECAY_DATE":null,"MEAN_ELEMENT_THEORY":"SGP4","SEMIMAJOR_AXIS":"6925.352","MEAN_MOTION_DDOT":"0.0000000000000","CLASSIFICATION_TYPE":"U","EPOCH":"2022-01-14T21:09:29.372544"},{"EPHEMERIS_TYPE":"0","RA_OF_ASC_NODE":"207.2382","NORAD_CAT_ID":"45084","FILE":"3273247","MEAN_ANOMALY":"287.1127","REV_AT_EPOCH":"10869","ECCENTRICITY":"0.00024480","ELEMENT_SET_NO":"999","PERIOD":"95.591","TLE_LINE1":"1 45084U 20006AS  22014.79679370  .00001064  00000-0  90279-4 0  9998","GP_ID":"193877358","TIME_SYSTEM":"UTC","OBJECT_TYPE":"PAYLOAD","APOAPSIS":"548.869","OBJECT_NAME":"STARLINK-1173","RCS_SIZE":"LARGE","INCLINATION":"53.0537","SITE":"AFETR","PERIAPSIS":"545.479","TLE_LINE2":"2 45084  53.0537 207.2382 0002448  73.0130 287.1127 15.06412859108695","COUNTRY_CODE":"US","BSTAR":"0.00009027900000","REF_FRAME":"TEME","MEAN_MOTION":"15.06412859","MEAN_MOTION_DDOT":"0.0000000000000","SEMIMAJOR_AXIS":"6925.309","CLASSIFICATION_TYPE":"U","EPOCH":"2022-01-14T19:07:22.975680","LAUNCH_DATE":"2020-01-29","DECAY_DATE":null,"MEAN_ELEMENT_THEORY":"SGP4","CENTER_NAME":"EARTH","ARG_OF_PERICENTER":"73.0130","MEAN_MOTION_DOT":"0.00001064","OBJECT_ID":"2020-006AS"},{"COUNTRY_CODE":"US","BSTAR":"0.00008358500000","MEAN_MOTION":"15.06402447","REF_FRAME":"TEME","SITE":"AFETR","RCS_SIZE":"LARGE","INCLINATION":"53.0533","TLE_LINE2":"2 45085  53.0533 207.2435 0002425  73.7319 286.3937 15.06402447108694","PERIAPSIS":"545.527","DECAY_DATE":null,"MEAN_ELEMENT_THEORY":"SGP4","LAUNCH_DATE":"2020-01-29","OBJECT_ID":"2020-006AT","CENTER_NAME":"EARTH","MEAN_MOTION_DOT":"0.00000963","ARG_OF_PERICENTER":"73.7319","CLASSIFICATION_TYPE":"U","EPOCH":"2022-01-14T19:02:04.642656","MEAN_MOTION_DDOT":"0.0000000000000","SEMIMAJOR_AXIS":"6925.341","ECCENTRICITY":"0.00024250","ELEMENT_SET_NO":"999","EPHEMERIS_TYPE":"0","MEAN_ANOMALY":"286.3937","FILE":"3273247","REV_AT_EPOCH":"10869","NORAD_CAT_ID":"45085","RA_OF_ASC_NODE":"207.2435","APOAPSIS":"548.885","OBJECT_TYPE":"PAYLOAD","OBJECT_NAME":"STARLINK-1179","PERIOD":"95.592","TIME_SYSTEM":"UTC","GP_ID":"193876106","TLE_LINE1":"1 45085U 20006AT  22014.79310929  .00000963  00000-0  83585-4 0  9990"},{"TIME_SYSTEM":"UTC","GP_ID":"193876356","TLE_LINE1":"1 45086U 20006AU  22014.84334048  .00006373  00000-0  43067-3 0  9996","PERIOD":"95.507","OBJECT_NAME":"STARLINK-1181","APOAPSIS":"544.563","OBJECT_TYPE":"PAYLOAD","FILE":"3273247","REV_AT_EPOCH":"10863","MEAN_ANOMALY":"272.8752","NORAD_CAT_ID":"45086","RA_OF_ASC_NODE":"204.0206","EPHEMERIS_TYPE":"0","ELEMENT_SET_NO":"999","ECCENTRICITY":"0.00021000","EPOCH":"2022-01-14T20:14:24.617472","CLASSIFICATION_TYPE":"U","MEAN_MOTION_DDOT":"0.0000000000000","SEMIMAJOR_AXIS":"6921.245","OBJECT_ID":"2020-006AU","MEAN_MOTION_DOT":"0.00006373","ARG_OF_PERICENTER":"87.2477","CENTER_NAME":"EARTH","MEAN_ELEMENT_THEORY":"SGP4","DECAY_DATE":null,"LAUNCH_DATE":"2020-01-29","TLE_LINE2":"2 45086  53.0025 204.0206 0002100  87.2477 272.8752 15.07739897108639","PERIAPSIS":"541.657","SITE":"AFETR","INCLINATION":"53.0025","RCS_SIZE":"LARGE","MEAN_MOTION":"15.07739897","REF_FRAME":"TEME","COUNTRY_CODE":"US","BSTAR":"0.00043067000000"},{"MEAN_ELEMENT_THEORY":"SGP4","DECAY_DATE":null,"LAUNCH_DATE":"2020-01-29","OBJECT_ID":"2020-006AV","MEAN_MOTION_DOT":"0.00001053","ARG_OF_PERICENTER":"77.4105","CENTER_NAME":"EARTH","EPOCH":"2022-01-14T20:16:23.693952","CLASSIFICATION_TYPE":"U","MEAN_MOTION_DDOT":"0.0000000000000","SEMIMAJOR_AXIS":"6925.339","COUNTRY_CODE":"US","BSTAR":"0.00008958400000","MEAN_MOTION":"15.06403005","REF_FRAME":"TEME","SITE":"AFETR","RCS_SIZE":"LARGE","INCLINATION":"53.0539","TLE_LINE2":"2 45087  53.0539 207.0142 0002353  77.4105 282.7147 15.06403005108705","PERIAPSIS":"545.575","OBJECT_TYPE":"PAYLOAD","APOAPSIS":"548.834","OBJECT_NAME":"STARLINK-1185","PERIOD":"95.592","TIME_SYSTEM":"UTC","TLE_LINE1":"1 45087U 20006AV  22014.84471868  .00001053  00000-0  89584-4 0  9994","GP_ID":"193877607","ECCENTRICITY":"0.00023530","ELEMENT_SET_NO":"999","EPHEMERIS_TYPE":"0","REV_AT_EPOCH":"10870","FILE":"3273247","MEAN_ANOMALY":"282.7147","RA_OF_ASC_NODE":"207.0142","NORAD_CAT_ID":"45087"},{"REV_AT_EPOCH":"10869","FILE":"3273247","MEAN_ANOMALY":"283.8454","NORAD_CAT_ID":"45088","RA_OF_ASC_NODE":"207.2316","EPHEMERIS_TYPE":"0","ELEMENT_SET_NO":"999","ECCENTRICITY":"0.00023160","TIME_SYSTEM":"UTC","GP_ID":"193877858","TLE_LINE1":"1 45088U 20006AW  22014.80050256  .00001015  00000-0  87091-4 0  9994","PERIOD":"95.593","OBJECT_NAME":"STARLINK-1183","OBJECT_TYPE":"PAYLOAD","APOAPSIS":"548.848","TLE_LINE2":"2 45088  53.0539 207.2316 0002316  76.2793 283.8454 15.06390126108690","PERIAPSIS":"545.640","SITE":"AFETR","INCLINATION":"53.0539","RCS_SIZE":"LARGE","MEAN_MOTION":"15.06390126","REF_FRAME":"TEME","BSTAR":"0.00008709100000","COUNTRY_CODE":"US","CLASSIFICATION_TYPE":"U","EPOCH":"2022-01-14T19:12:43.421184","SEMIMAJOR_AXIS":"6925.379","MEAN_MOTION_DDOT":"0.0000000000000","OBJECT_ID":"2020-006AW","CENTER_NAME":"EARTH","MEAN_MOTION_DOT":"0.00001015","ARG_OF_PERICENTER":"76.2793","DECAY_DATE":null,"MEAN_ELEMENT_THEORY":"SGP4","LAUNCH_DATE":"2020-01-29"},{"RA_OF_ASC_NODE":"207.1894","NORAD_CAT_ID":"45089","FILE":"3273247","MEAN_ANOMALY":"284.3870","REV_AT_EPOCH":"10870","EPHEMERIS_TYPE":"0","ELEMENT_SET_NO":"999","ECCENTRICITY":"0.00020540","TLE_LINE1":"1 45089U 20006AX  22014.79955822  .00000631  00000-0  61259-4 0  9997","GP_ID":"193876606","TIME_SYSTEM":"UTC","PERIOD":"95.593","OBJECT_NAME":"STARLINK-1136","OBJECT_TYPE":"PAYLOAD","APOAPSIS":"548.664","PERIAPSIS":"545.819","TLE_LINE2":"2 45089  53.0577 207.1894 0002054  75.7347 284.3870 15.06390790108708","RCS_SIZE":"LARGE","INCLINATION":"53.0577","SITE":"AFETR","REF_FRAME":"TEME","MEAN_MOTION":"15.06390790","BSTAR":"0.00006125900000","COUNTRY_CODE":"US","SEMIMAJOR_AXIS":"6925.377","MEAN_MOTION_DDOT":"0.0000000000000","CLASSIFICATION_TYPE":"U","EPOCH":"2022-01-14T19:11:21.830208","CENTER_NAME":"EARTH","MEAN_MOTION_DOT":"0.00000631","ARG_OF_PERICENTER":"75.7347","OBJECT_ID":"2020-006AX","LAUNCH_DATE":"2020-01-29","DECAY_DATE":null,"MEAN_ELEMENT_THEORY":"SGP4"}];
